IRIDIUM 64 [+]          
1 25287U 98021C   17255.36724528  .00000229  00000-0  74836-4 0  9996
2 25287  86.4017 187.5219 0002098  80.2750 279.8682 14.34220993 17496
IRIDIUM 65 [+]          
1 25288U 98021D   17255.37356396  .00000232  00000-0  75608-4 0  9994
2 25288  86.4015 187.4211 0002396  81.6622 278.4846 14.34221374 17514
IRIDIUM 66 [+]          
1 25289U 98021E   17255.37992959  .00000216  00000-0  70141-4 0  9995
2 25289  86.4015 187.3212 0002331  84.0673 276.0789 14.34220947 17501
IRIDIUM 67 [+]          
1 25290U 98021F   17255.38627797  .00000029  00000-0  33088-5 0  9995
2 25290  86.4018 187.4560 0002312  82.6548 277.4910 14.34220414 17237
IRIDIUM 68 [+]          
1 25291U 98021G   17255.39261786  .00000222  00000-0  72320-4 0  9995
2 25291  86.4016 187.5736 0002230  81.9473 278.1976 14.34220788 17504
IRIDIUM 69 [-]          
1 25319U 98026A   17255.46936105  .00000202  00000-0  59401-4 0  9996
2 25319  86.4024 208.9939 0002743  44.1720 315.9697 14.38690557 15587
IRIDIUM 71 [-]          
1 25320U 98026B   17255.43457017  .00000185  00000-0  53438-4 0  9999
2 25320  86.4012 204.8601 0004209  72.8283 287.3376 14.39102036 16014
IRIDIUM 70 [+]          
1 25342U 98032A   17255.44383653  .00000019  00000-0 -31275-6 0  9999
2 25342  86.4022 187.7981 0002370  80.0673  53.5431 14.34218305 11304
IRIDIUM 72 [+]          
1 25343U 98032B   17255.40532394  .00000219  00000-0  70994-4 0  9994
2 25343  86.4016 187.4206 0002298  83.3870 276.7588 14.34220372 11601
IRIDIUM 73 [-]          
1 25344U 98032C   17255.35965746  .00000189  00000-0  44343-4 0  9995
2 25344  86.4483 166.1357 0002715  94.7057 265.4458 14.49058287 20171
IRIDIUM 75 [+]          
1 25346U 98032E   17255.34188155  .00000220  00000-0  71344-4 0  9994
2 25346  86.4018 187.7022 0002267  83.7161 276.4293 14.34220665 12165
IRIDIUM 3 [+]           
1 25431U 98048A   17255.49270990  .00000140  00000-0  43016-4 0  9997
2 25431  86.3976 219.1986 0002464  85.4839  53.6661 14.34216251998120
IRIDIUM 76 [+]          
1 25432U 98048B   17255.41506484  .00000093  00000-0  26286-4 0  9997
2 25432  86.3973 218.9825 0002357  92.1917 267.9549 14.34216046998093
IRIDIUM 82 [-]          
1 25467U 98051A   17255.41889407  .00001659  00000-0  12291-3 0  9997
2 25467  86.4042 340.7322 0185290  80.4401 281.7708 14.89432377999832
IRIDIUM 81 [+]          
1 25468U 98051B   17255.60641444  .00000215  00000-0  63841-4 0  9991
2 25468  86.4276 345.2680 0002140 105.2529 254.8906 14.38621708995398
IRIDIUM 80 [+]          
1 25469U 98051C   17255.38662976  .00000215  00000-0  69635-4 0  9997
2 25469  86.4006 345.6427 0002082  76.2372 327.5947 14.34222528995331
IRIDIUM 77 [-]          
1 25471U 98051E   17255.52722831  .01320323 -10817-5  56339-3 0  9998
2 25471  86.3954 343.6413 0238390 291.7312  65.8742 15.82701258   809
IRIDIUM 2 [-]           
1 25527U 98066A   17255.54646202  .00001761  00000-0  87724-4 0  9996
2 25527  85.5330 340.6833 0011136 122.1902 238.0419 15.16762207 31113
IRIDIUM 86 [+]          
1 25528U 98066B   17255.60285848  .00000053  00000-0  11952-4 0  9992
2 25528  86.3954 313.2536 0002422  94.1382 266.0090 14.34217352991654
IRIDIUM 84 [+]          
1 25530U 98066D   17255.56480207  .00000074  00000-0  19513-4 0  9990
2 25530  86.3956 313.4358 0002233  96.3855 263.7595 14.34217452989452
IRIDIUM 83 [+]          
1 25531U 98066E   17255.59651545  .00000119  00000-0  35311-4 0  9993
2 25531  86.3961 313.5516 0002194  95.8276 264.3170 14.34217460986590
IRIDIUM 20 [+]          
1 25577U 98074A   17255.51650652  .00000089  00000-0  24744-4 0  9996
2 25577  86.3973 218.8602 0002322  85.3480 274.7981 14.34215670166349
IRIDIUM 11 [+]          
1 25578U 98074B   17255.48571069  .00000030  00000-0  37084-5 0  9995
2 25578  86.3971 219.0738 0002323  82.6873  53.0118 14.34214977989913
IRIDIUM 14 [+]          
1 25777U 99032A   17255.36089344  .00000210  00000-0  67820-4 0  9998
2 25777  86.4017 187.5242 0002414  83.7124 276.4347 14.34221047967172
IRIDIUM 21 [+]          
1 25778U 99032B   17255.46873872  .00000219  00000-0  70977-4 0  9993
2 25778  86.4016 187.4968 0002177  86.8538 273.2907 14.34220582960628
IRIDIUM 91 [+]          
1 27372U 02005A   17255.52921348  .00000019  00000-0 -40826-6 0  9999
2 27372  86.3929 250.6383 0002647  97.1028  16.7717 14.34219255824147
IRIDIUM 90 [S]          
1 27373U 02005B   17255.56742630  .00000181  00000-0  48046-4 0  9998
2 27373  86.4470 313.5517 0002462  95.4251 264.7230 14.42963966823881
IRIDIUM 94 [+]          
1 27374U 02005C   17255.50532297  .00000144  00000-0  44241-4 0  9991
2 27374  86.3973 219.1978 0002790  97.0326  41.6703 14.34215738828460
IRIDIUM 95 [+]          
1 27375U 02005D   17255.54523488  .00000022  00000-0  67541-6 0  9993
2 27375  86.3925 250.6516 0002560 110.4945 249.6525 14.34219134823403
IRIDIUM 96 [+]          
1 27376U 02005E   17255.59303522  .00000012  00000-0 -26952-5 0  9994
2 27376  86.3955 282.6988 0001806 121.2064 238.9309 14.34220168229308
IRIDIUM 97 [+]          
1 27450U 02031A   17255.56132320  .00000019  00000-0 -20680-6 0  9999
2 27450  86.3922 282.3568 0001985  84.1968 275.9454 14.34220305802700
IRIDIUM 98 [+]          
1 27451U 02031B   17255.39306750  .00000219  00000-0  71014-4 0  9997
2 27451  86.4000 345.7319 0002592  87.2570 317.1110 14.34222404803807
